[{"OBJECT_NAME":"THORAD AGENA D DEB","OBJECT_ID":"1970-025PF","EPOCH":"2026-03-26T03:39:39.487968","MEAN_MOTION":15.95794208,"ECCENTRICITY":0.00127872,"INCLINATION":99.9185,"RA_OF_ASC_NODE":153.2558,"ARG_OF_PERICENTER":247.5957,"MEAN_ANOMALY":112.3956,"EPHEMERIS_TYPE":0,"CLASSIFICATION_TYPE":"U","NORAD_CAT_ID":17717,"ELEMENT_SET_NO":999,"REV_AT_EPOCH":15300,"BSTAR":0.0045862792,"MEAN_MOTION_DOT":0.01810775,"MEAN_MOTION_DDOT":0.0019005344},{"OBJECT_NAME":"COSMOS 1908","OBJECT_ID":"1988-001A","EPOCH":"2026-03-26T11:43:43.000896","MEAN_MOTION":16.04065265,"ECCENTRICITY":0.0006956,"INCLINATION":82.4315,"RA_OF_ASC_NODE":82.5275,"ARG_OF_PERICENTER":154.5515,"MEAN_ANOMALY":205.6109,"EPHEMERIS_TYPE":0,"CLASSIFICATION_TYPE":"U","NORAD_CAT_ID":18748,"ELEMENT_SET_NO":999,"REV_AT_EPOCH":9358,"BSTAR":0.00071618,"MEAN_MOTION_DOT":0.0046063,"MEAN_MOTION_DDOT":9.5533e-5},{"OBJECT_NAME":"CZ-2D DEB","OBJECT_ID":"2005-024J","EPOCH":"2026-03-20T09:06:47.329344","MEAN_MOTION":16.04584635,"ECCENTRICITY":0.0003368,"INCLINATION":97.1317,"RA_OF_ASC_NODE":122.7251,"ARG_OF_PERICENTER":139.7585,"MEAN_ANOMALY":220.3946,"EPHEMERIS_TYPE":0,"CLASSIFICATION_TYPE":"U","NORAD_CAT_ID":31409,"ELEMENT_SET_NO":999,"REV_AT_EPOCH":12013,"BSTAR":0.00062734,"MEAN_MOTION_DOT":0.00414611,"MEAN_MOTION_DDOT":8.0527e-5},{"OBJECT_NAME":"ATLAS CENTAUR R/B","OBJECT_ID":"2012-048N","EPOCH":"2026-03-26T15:27:19.808064","MEAN_MOTION":16.22222857,"ECCENTRICITY":0.0012182,"INCLINATION":64.6103,"RA_OF_ASC_NODE":164.8832,"ARG_OF_PERICENTER":277.7807,"MEAN_ANOMALY":82.1985,"EPHEMERIS_TYPE":0,"CLASSIFICATION_TYPE":"U","NORAD_CAT_ID":38770,"ELEMENT_SET_NO":999,"REV_AT_EPOCH":10603,"BSTAR":0.0012086,"MEAN_MOTION_DOT":0.02830911,"MEAN_MOTION_DDOT":7.5016e-6},{"OBJECT_NAME":"STARLINK-1031","OBJECT_ID":"2019-074Z","EPOCH":"2026-03-26T10:14:54.707712","MEAN_MOTION":16.01040878,"ECCENTRICITY":0.0003206,"INCLINATION":53.0352,"RA_OF_ASC_NODE":34.1174,"ARG_OF_PERICENTER":91.7508,"MEAN_ANOMALY":268.3889,"EPHEMERIS_TYPE":0,"CLASSIFICATION_TYPE":"U","NORAD_CAT_ID":44736,"ELEMENT_SET_NO":999,"REV_AT_EPOCH":35236,"BSTAR":0.00072742,"MEAN_MOTION_DOT":0.00402839,"MEAN_MOTION_DDOT":8.1402e-5},{"OBJECT_NAME":"STARLINK-1053","OBJECT_ID":"2019-074AX","EPOCH":"2026-03-26T16:26:41.329248","MEAN_MOTION":16.06859938,"ECCENTRICITY":0.0005428,"INCLINATION":53.0238,"RA_OF_ASC_NODE":355.7768,"ARG_OF_PERICENTER":170.8847,"MEAN_ANOMALY":189.2284,"EPHEMERIS_TYPE":0,"CLASSIFICATION_TYPE":"U","NORAD_CAT_ID":44758,"ELEMENT_SET_NO":999,"REV_AT_EPOCH":35292,"BSTAR":0.00084224,"MEAN_MOTION_DOT":0.00664479,"MEAN_MOTION_DDOT":0.00023284},{"OBJECT_NAME":"STARLINK-1298","OBJECT_ID":"2020-019BF","EPOCH":"2026-03-26T15:57:58.322304","MEAN_MOTION":16.21004996,"ECCENTRICITY":0.0003333,"INCLINATION":53.0261,"RA_OF_ASC_NODE":325.3663,"ARG_OF_PERICENTER":253.3228,"MEAN_ANOMALY":106.7444,"EPHEMERIS_TYPE":0,"CLASSIFICATION_TYPE":"U","NORAD_CAT_ID":45413,"ELEMENT_SET_NO":999,"REV_AT_EPOCH":33384,"BSTAR":0.00071035,"MEAN_MOTION_DOT":0.01524679,"MEAN_MOTION_DDOT":1.1841e-5},{"OBJECT_NAME":"STARLINK-1398","OBJECT_ID":"2020-035AU","EPOCH":"2026-03-26T13:50:00.648960","MEAN_MOTION":16.22120638,"ECCENTRICITY":0.0010118,"INCLINATION":53.0255,"RA_OF_ASC_NODE":211.2293,"ARG_OF_PERICENTER":317.0953,"MEAN_ANOMALY":42.9295,"EPHEMERIS_TYPE":0,"CLASSIFICATION_TYPE":"U","NORAD_CAT_ID":45699,"ELEMENT_SET_NO":999,"REV_AT_EPOCH":32323,"BSTAR":0.00086118,"MEAN_MOTION_DOT":0.0204429,"MEAN_MOTION_DDOT":1.1886e-5},{"OBJECT_NAME":"STARLINK-1585","OBJECT_ID":"2020-057A","EPOCH":"2026-03-26T14:00:00.999360","MEAN_MOTION":15.95417196,"ECCENTRICITY":0.0007074,"INCLINATION":53.0361,"RA_OF_ASC_NODE":161.1055,"ARG_OF_PERICENTER":6.2446,"MEAN_ANOMALY":152.2173,"EPHEMERIS_TYPE":0,"CLASSIFICATION_TYPE":"U","NORAD_CAT_ID":46117,"ELEMENT_SET_NO":999,"REV_AT_EPOCH":604,"BSTAR":0.0011269,"MEAN_MOTION_DOT":0.00456659,"MEAN_MOTION_DDOT":9.5341e-5},{"OBJECT_NAME":"STARLINK-1625","OBJECT_ID":"2020-057Q","EPOCH":"2026-03-26T14:00:00.999360","MEAN_MOTION":15.95684761,"ECCENTRICITY":0.0009217,"INCLINATION":53.0409,"RA_OF_ASC_NODE":162.1902,"ARG_OF_PERICENTER":344.3404,"MEAN_ANOMALY":290.7787,"EPHEMERIS_TYPE":0,"CLASSIFICATION_TYPE":"U","NORAD_CAT_ID":46131,"ELEMENT_SET_NO":999,"REV_AT_EPOCH":604,"BSTAR":0.0010993,"MEAN_MOTION_DOT":0.00452814,"MEAN_MOTION_DDOT":9.4173e-5},{"OBJECT_NAME":"ION-MK01","OBJECT_ID":"2020-061C","EPOCH":"2026-03-26T05:00:38.155680","MEAN_MOTION":15.95652335,"ECCENTRICITY":0.0003944,"INCLINATION":97.1937,"RA_OF_ASC_NODE":165.1171,"ARG_OF_PERICENTER":226.7407,"MEAN_ANOMALY":133.3541,"EPHEMERIS_TYPE":0,"CLASSIFICATION_TYPE":"U","NORAD_CAT_ID":46274,"ELEMENT_SET_NO":999,"REV_AT_EPOCH":31027,"BSTAR":0.00071215187,"MEAN_MOTION_DOT":0.00283494,"MEAN_MOTION_DDOT":3.353005e-5},{"OBJECT_NAME":"STARLINK-1752","OBJECT_ID":"2020-062P","EPOCH":"2026-03-26T06:01:30.969696","MEAN_MOTION":16.16932293,"ECCENTRICITY":0.00112568,"INCLINATION":53.0281,"RA_OF_ASC_NODE":241.2374,"ARG_OF_PERICENTER":301.3806,"MEAN_ANOMALY":58.6129,"EPHEMERIS_TYPE":0,"CLASSIFICATION_TYPE":"U","NORAD_CAT_ID":46338,"ELEMENT_SET_NO":999,"REV_AT_EPOCH":30765,"BSTAR":0.001255988,"MEAN_MOTION_DOT":0.01870387,"MEAN_MOTION_DDOT":0.0035382068},{"OBJECT_NAME":"STARLINK-1765","OBJECT_ID":"2020-062V","EPOCH":"2026-03-25T19:38:06.345600","MEAN_MOTION":16.02061542,"ECCENTRICITY":0.00090535,"INCLINATION":53.0316,"RA_OF_ASC_NODE":218.9466,"ARG_OF_PERICENTER":310.3827,"MEAN_ANOMALY":49.6413,"EPHEMERIS_TYPE":0,"CLASSIFICATION_TYPE":"U","NORAD_CAT_ID":46344,"ELEMENT_SET_NO":999,"REV_AT_EPOCH":30793,"BSTAR":0.0019425988,"MEAN_MOTION_DOT":0.01142428,"MEAN_MOTION_DDOT":0.00069702205},{"OBJECT_NAME":"STARLINK-1575","OBJECT_ID":"2020-062AA","EPOCH":"2026-03-26T14:00:00.999360","MEAN_MOTION":15.94777804,"ECCENTRICITY":0.0006799,"INCLINATION":53.0226,"RA_OF_ASC_NODE":176.7813,"ARG_OF_PERICENTER":317.9949,"MEAN_ANOMALY":337.927,"EPHEMERIS_TYPE":0,"CLASSIFICATION_TYPE":"U","NORAD_CAT_ID":46349,"ELEMENT_SET_NO":999,"REV_AT_EPOCH":585,"BSTAR":0.0010563,"MEAN_MOTION_DOT":0.00413241,"MEAN_MOTION_DDOT":7.8974e-5},{"OBJECT_NAME":"STARLINK-1657","OBJECT_ID":"2020-062AF","EPOCH":"2026-03-26T14:00:00.999360","MEAN_MOTION":15.94455803,"ECCENTRICITY":0.0009999,"INCLINATION":53.0393,"RA_OF_ASC_NODE":243.2982,"ARG_OF_PERICENTER":316.5318,"MEAN_ANOMALY":286.2316,"EPHEMERIS_TYPE":0,"CLASSIFICATION_TYPE":"U","NORAD_CAT_ID":46354,"ELEMENT_SET_NO":999,"REV_AT_EPOCH":594,"BSTAR":0.0010474,"MEAN_MOTION_DOT":0.00403765,"MEAN_MOTION_DDOT":7.5515e-5},{"OBJECT_NAME":"STARLINK-1742","OBJECT_ID":"2020-062BD","EPOCH":"2026-03-26T14:00:00.999360","MEAN_MOTION":15.91591512,"ECCENTRICITY":0.0003068,"INCLINATION":53.0228,"RA_OF_ASC_NODE":170.1356,"ARG_OF_PERICENTER":307.1947,"MEAN_ANOMALY":46.3356,"EPHEMERIS_TYPE":0,"CLASSIFICATION_TYPE":"U","NORAD_CAT_ID":46376,"ELEMENT_SET_NO":999,"REV_AT_EPOCH":604,"BSTAR":0.0010268,"MEAN_MOTION_DOT":0.00338438,"MEAN_MOTION_DDOT":5.4253e-5}]
