THORAD AGENA D DEB      
1 17717U 70025PF  26085.15254037  .01810775  19005-2  45863-2 0  9999
2 17717  99.9185 153.2558 0012787 247.5957 112.3956 15.95794208153005
COSMOS 1908             
1 18748U 88001A   26085.48869214  .00460630  95533-4  71618-3 0  9992
2 18748  82.4315  82.5275 0006956 154.5515 205.6109 16.04065265 93587
CZ-2D DEB               
1 31409U 05024J   26079.37971446  .00414611  80527-4  62734-3 0  9991
2 31409  97.1317 122.7251 0003368 139.7585 220.3946 16.04584635120130
ATLAS CENTAUR R/B       
1 38770U 12048N   26085.64397926  .02830911  75016-5  12086-2 0  9994
2 38770  64.6103 164.8832 0012182 277.7807  82.1985 16.22222857106031
STARLINK-1031           
1 44736U 19074Z   26085.42702208  .00402839  81402-4  72742-3 0  9991
2 44736  53.0352  34.1174 0003206  91.7508 268.3889 16.01040878352363
STARLINK-1053           
1 44758U 19074AX  26085.68520057  .00664479  23284-3  84224-3 0  9994
2 44758  53.0238 355.7768 0005428 170.8847 189.2284 16.06859938352926
STARLINK-1298           
1 45413U 20019BF  26085.66525836  .01524679  11841-4  71035-3 0  9993
2 45413  53.0261 325.3663 0003333 253.3228 106.7444 16.21004996333846
STARLINK-1398           
1 45699U 20035AU  26085.57639640  .02044290  11886-4  86118-3 0  9990
2 45699  53.0255 211.2293 0010118 317.0953  42.9295 16.22120638323239
STARLINK-1585           
1 46117U 20057A   26085.58334490  .00456659  95341-4  11269-2 0  9992
2 46117  53.0361 161.1055 0007074   6.2446 152.2173 15.95417196  6047
STARLINK-1625           
1 46131U 20057Q   26085.58334490  .00452814  94173-4  10993-2 0  9992
2 46131  53.0409 162.1902 0009217 344.3404 290.7787 15.95684761  6042
ION-MK01                
1 46274U 20061C   26085.20877495  .00283494  33530-4  71215-3 0  9992
2 46274  97.1937 165.1171 0003944 226.7407 133.3541 15.95652335310278
STARLINK-1752           
1 46338U 20062P   26085.25105289  .01870387  35382-2  12560-2 0  9990
2 46338  53.0281 241.2374 0011256 301.3806  58.6129 16.16932293307658
STARLINK-1765           
1 46344U 20062V   26084.81812900  .01142428  69702-3  19426-2 0  9993
2 46344  53.0316 218.9466 0009053 310.3827  49.6413 16.02061542307934
STARLINK-1575           
1 46349U 20062AA  26085.58334490  .00413241  78974-4  10563-2 0  9994
2 46349  53.0226 176.7813 0006799 317.9949 337.9270 15.94777804  5853
STARLINK-1657           
1 46354U 20062AF  26085.58334490  .00403765  75515-4  10474-2 0  9999
2 46354  53.0393 243.2982 0009999 316.5318 286.2316 15.94455803  5940
STARLINK-1742           
1 46376U 20062BD  26085.58334490  .00338438  54253-4  10268-2 0  9994
2 46376  53.0228 170.1356 0003068 307.1947  46.3356 15.91591512  6045
